1 33053U 08029A   18272.74850376 +.00000467 +00000-0 +10014-4 0  9990
2 33053 025.5834 047.5561 0012206 316.0550 043.9014 15.11133269568408
